{
    "links": {
        "self": "http://www.neowsapp.com/rest/v1/neo/3751726?api_key=iIulBulltgU6a56xZRHN4H3l9WmuAYTsLGpBGhQ2"
    },
    "id": "3751726",
    "neo_reference_id": "3751726",
    "name": "(2016 GV216)",
    "designation": "2016 GV216",
    "nasa_jpl_url": "http://ssd.jpl.nasa.gov/sbdb.cgi?sstr=3751726",
    "absolute_magnitude_h": 23.3,
    "estimated_diameter": {
        "kilometers": {
            "estimated_diameter_min": 0.058150704,
            "estimated_diameter_max": 0.130028927
        },
        "meters": {
            "estimated_diameter_min": 58.1507039646,
            "estimated_diameter_max": 130.0289270043
        },
        "miles": {
            "estimated_diameter_min": 0.0361331611,
            "estimated_diameter_max": 0.0807962044
        },
        "feet": {
            "estimated_diameter_min": 190.7831555951,
            "estimated_diameter_max": 426.6041048727
        }
    },
    "is_potentially_hazardous_asteroid": false,
    "close_approach_data": [
        {
            "close_approach_date": "2016-03-31",
            "close_approach_date_full": "2016-Mar-31 20:07",
            "epoch_date_close_approach": 1459454820000,
            "relative_velocity": {
                "kilometers_per_second": "6.1258632209",
                "kilometers_per_hour": "22053.1075951797",
                "miles_per_hour": "13702.9434387937"
            },
            "miss_distance": {
                "astronomical": "0.2020574678",
                "lunar": "78.6003549742",
                "kilometers": "30227366.800473586",
                "miles": "18782414.7776680468"
            },
            "orbiting_body": "Earth"
        }
    ],
    "orbital_data": {
        "orbit_id": "7",
        "orbit_determination_date": "2017-04-06 08:26:35",
        "first_observation_date": "2016-04-11",
        "last_observation_date": "2016-04-29",
        "data_arc_in_days": 18,
        "observations_used": 18,
        "orbit_uncertainty": "8",
        "minimum_orbit_intersection": ".160273",
        "jupiter_tisserand_invariant": "3.479",
        "epoch_osculation": "2457490.5",
        "eccentricity": ".4824267097388934",
        "semi_major_axis": "2.226532652839596",
        "inclination": "5.018962254114743",
        "ascending_node_longitude": "162.7820385010724",
        "orbital_period": "1213.506284371217",
        "perihelion_distance": "1.15239383100398",
        "perihelion_argument": "34.28707470539526",
        "aphelion_distance": "3.300671474675213",
        "perihelion_time": "2457478.539998160836",
        "mean_anomaly": "3.548066225573776",
        "mean_motion": ".2966610100305624",
        "equinox": "J2000",
        "orbit_class": {
            "orbit_class_type": "AMO",
            "orbit_class_description": "Near-Earth asteroid orbits similar to that of 1221 Amor",
            "orbit_class_range": "1.017 AU < q (perihelion) < 1.3 AU"
        }
    },
    "is_sentry_object": false
}